QIANFAN-81              
1 63167U 25046J   25208.87758918  .00000124  00000+0  17376-3 0  9993
2 63167  88.9856 334.0739 0015899 153.7042 206.4920 13.50958738 28879
QIANFAN-82              
1 63168U 25046K   25208.91036496  .00000134  00000+0  18931-3 0  9998
2 63168  88.9856 334.1139 0013835 160.1710 199.9982 13.50960285 28860
QIANFAN-83              
1 63169U 25046L   25208.87294155  .00000182  00000+0  22026-3 0  9995
2 63169  88.9856 334.1640 0015297 153.9481 206.2449 13.61929028 28836
QIANFAN-84              
1 63170U 25046M   25208.86517977  .00000206  00000+0  30062-3 0  9992
2 63170  88.9857 334.2517 0016882 158.0717 202.1160 13.50962066 28788
QIANFAN-85              
1 63171U 25046N   25209.23142756  .00000131  00000+0  18365-3 0  9993
2 63171  88.9856 334.0864 0014240 158.4660 201.7093 13.50956619 28909
QIANFAN-86              
1 63172U 25046P   25208.86932931  .00000139  00000+0  19626-3 0  9993
2 63172  88.9858 333.9825 0011986 162.1927 197.9647 13.50956855 28935
QIANFAN-87              
1 63173U 25046Q   25209.13666980  .00000137  00000+0  19359-3 0  9994
2 63173  88.9854 334.0719 0012854 157.2235 202.9489 13.50954732 28908
QIANFAN-88              
1 63174U 25046R   25208.85707142  .00000142  00000+0  20154-3 0  9990
2 63174  88.9857 334.0518 0012976 165.6428 194.5094 13.50957049 28891
